OBJECT_NAME,OBJECT_ID,EPOCH,MEAN_MOTION,ECCENTRICITY,INCLINATION,RA_OF_ASC_NODE,ARG_OF_PERICENTER,MEAN_ANOMALY,EPHEMERIS_TYPE,CLASSIFICATION_TYPE,NORAD_CAT_ID,ELEMENT_SET_NO,REV_AT_EPOCH,BSTAR,MEAN_MOTION_DOT,MEAN_MOTION_DDOT
CZ-2C R/B,2007-010B,2026-06-12T19:59:32.812224,14.20275272,.0059287,98.4094,272.3969,18.7658,341.5686,0,U,31114,999,99322,.49425E-4,.66E-6,0
COSMO-SKYMED 1,2007-023A,2026-06-12T20:34:39.506880,14.97079974,.0001015,97.8844,355.6775,92.7928,267.3409,0,U,31598,999,2914,.22107E-3,.2489E-4,0
COSMOS 2428,2007-029A,2026-06-12T19:48:11.625984,14.12928891,.0007172,70.9371,3.6368,143.3258,216.8355,0,U,31792,999,97753,-.47482E-4,-.136E-5,0
SL-16 R/B,2007-029B,2026-06-12T21:01:28.948800,14.14853026,.0002242,70.9765,332.2911,259.9868,204.6843,0,U,31793,999,97883,.16168E-3,.264E-5,0
KORONAS-FOTON,2009-003A,2026-06-12T06:54:27.962496,15.45625075,.00111457,82.4286,177.3699,163.6265,196.5346,0,U,33504,999,96034,.24109122E-3,.11675E-3,0
CZ-2C R/B,2011-030B,2026-06-12T20:26:50.493120,14.81461475,.0053372,97.8654,119.3164,41.8414,11.8821,0,U,37731,999,80418,.15649E-3,.1201E-4,0
H-2A R/B,2012-025E,2026-06-12T21:00:37.658304,14.95695097,.0043928,98.4819,138.6655,3.4073,356.7436,0,U,38341,999,76244,.30481E-3,.3388E-4,0
SHIJIAN-16 (SJ-16),2013-057A,2026-06-12T21:10:57.910944,14.92598105,.0016886,74.9737,4.8373,240.8209,119.1290,0,U,39358,999,68570,.46016E-4,.445E-5,0
SL-4 R/B,2014-021B,2026-06-11T10:12:15.136416,15.41833581,.0091459,51.6055,238.9984,85.0382,276.1037,0,U,39679,999,67072,.21183E-3,.10157E-3,0
ALOS-2,2014-029A,2026-06-12T19:27:21.812832,14.79473349,.0001607,97.9213,261.0367,89.2474,270.8921,0,U,39766,999,65093,.12193E-3,.859E-5,0
YAOGAN-29,2015-069A,2026-06-12T20:38:11.040864,14.83082603,.0002837,98.0035,192.4858,61.5524,298.5975,0,U,41038,999,56998,.60961E-4,.442E-5,0
ASTRO-H (HITOMI),2016-012A,2026-06-12T03:27:45.825696,15.10488707,.0009713,30.9978,106.7554,203.5249,156.4946,0,U,41337,999,56652,.1236178E-3,.2184E-4,0
HXMT (HUIYAN),2017-034A,2026-06-12T06:24:02.599200,15.18448317,.00302229,43.0133,210.4397,114.8323,245.5673,0,U,42758,999,49691,.21171997E-3,.4248E-4,0
SAOCOM 1A,2018-076A,2026-06-12T19:34:05.345760,14.82146619,.0001602,97.8887,350.6281,79.8122,280.3271,0,U,43641,999,41545,.11216E-3,.841E-5,0
H-2A R/B,2018-084L,2026-06-12T17:23:09.227040,15.44989544,.0023883,98.8594,41.6400,55.4270,304.9223,0,U,43682,999,42043,.45532E-3,.21606E-3,0
SAOCOM 1B,2020-059A,2026-06-12T20:19:05.090016,14.82166557,.0001492,97.8890,349.7535,81.7772,278.3611,0,U,46265,999,31284,.82405E-5,.13E-6,0
CSS (TIANHE),2021-035A,2026-06-12T19:37:30.079200,15.60618766,.0007968,41.4694,348.5894,41.6006,318.5438,0,U,48274,999,29248,.26094E-3,.21976E-3,0
COSMOS 2550,2021-056A,2026-06-12T20:25:08.664672,15.33829818,.0008476,67.1419,113.0226,268.0069,92.0114,0,U,48865,999,27805,.14296E-3,.4514E-4,0
CZ-2C R/B,2022-058K,2026-06-12T06:01:55.200576,15.61513854,.00327671,50.1844,189.1951,247.5338,112.2165,0,U,52794,999,22487,.39613819E-3,.35195E-3,0
CZ-2C R/B,2022-132E,2026-06-11T23:51:02.154816,15.70922899,.00167132,97.2900,169.7879,100.3150,259.9998,0,U,54039,999,20513,.4631054E-3,.58372E-3,0
GSLV R/B,2022-138AN,2026-06-12T20:10:06.824928,14.97237180,.0022223,87.3795,134.4438,158.4843,201.7328,0,U,54149,999,19816,.2006E-3,.2361E-4,0
XRISM,2023-137A,2026-06-12T20:02:19.012992,15.12429840,.0007977,31.0030,27.7923,280.2872,79.6867,0,U,57800,999,15220,.27122E-3,.4932E-4,0
ACS3,2024-077B,2026-06-12T18:07:07.396608,13.93861971,.006327,97.1677,83.5323,67.6483,293.1372,0,U,59588,999,10742,.43259E-2,.5776E-4,0
CZ-8A R/B,2025-231K,2026-06-11T22:49:47.597376,14.30153411,.01164756,50.0047,61.5920,205.5764,153.9361,0,U,66004,999,3419,.41333084E-4,-.48E-6,0
SZ-21 MODULE,2025-246C,2026-06-12T05:02:55.917024,15.75973730,.00069631,41.4744,338.3135,319.0725,40.9596,0,U,66515,999,3295,.30205628E-3,.48331E-3,0
