CZ-2C R/B               
1 31114U 07010B   26163.83301866  .00000066  00000+0  49425-4 0  9990
2 31114  98.4094 272.3969 0059287  18.7658 341.5686 14.20275272993220
COSMO-SKYMED 1          
1 31598U 07023A   26163.85740170  .00002489  00000+0  22107-3 0  9995
2 31598  97.8844 355.6775 0001015  92.7928 267.3409 14.97079974 29144
COSMOS 2428             
1 31792U 07029A   26163.82513456 -.00000136  00000+0 -47482-4 0  9992
2 31792  70.9371   3.6368 0007172 143.3258 216.8355 14.12928891977536
SL-16 R/B               
1 31793U 07029B   26163.87602950  .00000264  00000+0  16168-3 0  9992
2 31793  70.9765 332.2911 0002242 259.9868 204.6843 14.14853026978833
KORONAS-FOTON           
1 33504U 09003A   26163.28782364  .00011675  00000+0  24109-3 0  9993
2 33504  82.4286 177.3699 0011145 163.6265 196.5346 15.45625075960346
CZ-2C R/B               
1 37731U 11030B   26163.85197330  .00001201  00000+0  15649-3 0  9991
2 37731  97.8654 119.3164 0053372  41.8414  11.8821 14.81461475804182
H-2A R/B                
1 38341U 12025E   26163.87543586  .00003388  00000+0  30481-3 0  9993
2 38341  98.4819 138.6655 0043928   3.4073 356.7436 14.95695097762449
SHIJIAN-16 (SJ-16)      
1 39358U 13057A   26163.88261471  .00000445  00000+0  46016-4 0  9992
2 39358  74.9737   4.8373 0016886 240.8209 119.1290 14.92598105685709
SL-4 R/B                
1 39679U 14021B   26162.42517519  .00010157  00000+0  21183-3 0  9994
2 39679  51.6055 238.9984 0091459  85.0382 276.1037 15.41833581670722
ALOS-2                  
1 39766U 14029A   26163.81066913  .00000859  00000+0  12193-3 0  9999
2 39766  97.9213 261.0367 0001607  89.2474 270.8921 14.79473349650930
YAOGAN-29               
1 41038U 15069A   26163.85985001  .00000442  00000+0  60961-4 0  9996
2 41038  98.0035 192.4858 0002837  61.5524 298.5975 14.83082603569980
ASTRO-H (HITOMI)        
1 41337U 16012A   26163.14428039  .00002184  00000+0  12362-3 0  9998
2 41337  30.9978 106.7554 0009713 203.5249 156.4946 15.10488707566529
HXMT (HUIYAN)           
1 42758U 17034A   26163.26669675  .00004248  00000+0  21172-3 0  9999
2 42758  43.0133 210.4397 0030222 114.8323 245.5673 15.18448317496912
SAOCOM 1A               
1 43641U 18076A   26163.81533965  .00000841  00000+0  11216-3 0  9994
2 43641  97.8887 350.6281 0001602  79.8122 280.3271 14.82146619415454
H-2A R/B                
1 43682U 18084L   26163.72441235  .00021606  00000+0  45532-3 0  9996
2 43682  98.8594  41.6400 0023883  55.4270 304.9223 15.44989544420439
SAOCOM 1B               
1 46265U 20059A   26163.84658669  .00000013  00000+0  82405-5 0  9996
2 46265  97.8890 349.7535 0001492  81.7772 278.3611 14.82166557312841
CSS (TIANHE)            
1 48274U 21035A   26163.81770925  .00021976  00000+0  26094-3 0  9991
2 48274  41.4694 348.5894 0007968  41.6006 318.5438 15.60618766292486
COSMOS 2550             
1 48865U 21056A   26163.85079473  .00004514  00000+0  14296-3 0  9994
2 48865  67.1419 113.0226 0008476 268.0069  92.0114 15.33829818278059
CZ-2C R/B               
1 52794U 22058K   26163.25133334  .00035195  00000+0  39614-3 0  9994
2 52794  50.1844 189.1951 0032767 247.5338 112.2165 15.61513854224872
CZ-2C R/B               
1 54039U 22132E   26162.99377494  .00058372  00000+0  46311-3 0  9992
2 54039  97.2900 169.7879 0016713 100.3150 259.9998 15.70922899205139
GSLV R/B                
1 54149U 22138AN  26163.84035677  .00002361  00000+0  20060-3 0  9999
2 54149  87.3795 134.4438 0022223 158.4843 201.7328 14.97237180198165
XRISM                   
1 57800U 23137A   26163.83494228  .00004932  00000+0  27122-3 0  9998
2 57800  31.0030  27.7923 0007977 280.2872  79.6867 15.12429840152207
ACS3                    
1 59588U 24077B   26163.75494672  .00005776  00000+0  43259-2 0  9996
2 59588  97.1677  83.5323 0063270  67.6483 293.1372 13.93861971107429
CZ-8A R/B               
1 66004U 25231K   26162.95124534 -.00000048  00000+0  41333-4 0  9999
2 66004  50.0047  61.5920 0116475 205.5764 153.9361 14.30153411 34198
SZ-21 MODULE            
1 66515U 25246C   26163.21036941  .00048331  00000+0  30206-3 0  9998
2 66515  41.4744 338.3135 0006963 319.0725  40.9596 15.75973730 32955
